{
    "links": {
        "self": "http://www.neowsapp.com/rest/v1/neo/3596493?api_key=iIulBulltgU6a56xZRHN4H3l9WmuAYTsLGpBGhQ2"
    },
    "id": "3596493",
    "neo_reference_id": "3596493",
    "name": "(2012 BW61)",
    "designation": "2012 BW61",
    "nasa_jpl_url": "http://ssd.jpl.nasa.gov/sbdb.cgi?sstr=3596493",
    "absolute_magnitude_h": 25.3,
    "estimated_diameter": {
        "kilometers": {
            "estimated_diameter_min": 0.0231502122,
            "estimated_diameter_max": 0.0517654482
        },
        "meters": {
            "estimated_diameter_min": 23.150212221,
            "estimated_diameter_max": 51.7654482198
        },
        "miles": {
            "estimated_diameter_min": 0.0143848705,
            "estimated_diameter_max": 0.0321655483
        },
        "feet": {
            "estimated_diameter_min": 75.9521422633,
            "estimated_diameter_max": 169.8341531374
        }
    },
    "is_potentially_hazardous_asteroid": false,
    "close_approach_data": [
        {
            "close_approach_date": "2012-02-02",
            "close_approach_date_full": "2012-Feb-02 20:35",
            "epoch_date_close_approach": 1328214900000,
            "relative_velocity": {
                "kilometers_per_second": "16.5277526332",
                "kilometers_per_hour": "59499.9094794959",
                "miles_per_hour": "36970.9298651901"
            },
            "miss_distance": {
                "astronomical": "0.0471583078",
                "lunar": "18.3445817342",
                "kilometers": "7054782.399684386",
                "miles": "4383638.5111450868"
            },
            "orbiting_body": "Earth"
        }
    ],
    "orbital_data": {
        "orbit_id": "4",
        "orbit_determination_date": "2017-04-06 08:51:13",
        "first_observation_date": "2012-01-26",
        "last_observation_date": "2012-01-27",
        "data_arc_in_days": 1,
        "observations_used": 10,
        "orbit_uncertainty": "9",
        "minimum_orbit_intersection": ".0396655",
        "jupiter_tisserand_invariant": "3.754",
        "epoch_osculation": "2455953.5",
        "eccentricity": ".5621187647905321",
        "semi_major_axis": "1.861008949590891",
        "inclination": "14.52539522001501",
        "ascending_node_longitude": "307.3151222480416",
        "orbital_period": "927.3018353520297",
        "perihelion_distance": ".8149008975827335",
        "perihelion_argument": "249.6813355388703",
        "aphelion_distance": "2.907117001599048",
        "perihelion_time": "2456003.400464771091",
        "mean_anomaly": "340.6274865068362",
        "mean_motion": ".3882231073804938",
        "equinox": "J2000",
        "orbit_class": {
            "orbit_class_type": "APO",
            "orbit_class_description": "Near-Earth asteroid orbits which cross the Earth’s orbit similar to that of 1862 Apollo",
            "orbit_class_range": "a (semi-major axis) > 1.0 AU; q (perihelion) < 1.017 AU"
        }
    },
    "is_sentry_object": false
}